SL-4 R/B                
1 39679U 14021B   26012.95334172  .00006660  00000+0  16099-3 0  9992
2 39679  51.6069 248.8120 0099421 259.4362  99.5409 15.37490982647690
ALOS-2                  
1 39766U 14029A   26012.98942580  .00000328  00000+0  50779-4 0  9997
2 39766  97.9201 112.3879 0001486  96.6808 263.4573 14.79478700628630
YAOGAN-29               
1 41038U 15069A   26012.99371138  .00000047  00000+0  12539-4 0  9993
2 41038  98.0204  41.2626 0002187 129.3544 230.7864 14.82922365547624
ASTRO-H (HITOMI)        
1 41337U 16012A   26012.96788017  .00002334  00000+0  13594-3 0  9991
2 41337  31.0011 356.0170 0009625 133.9542 226.1891 15.09585737543806
HXMT (HUIYAN)           
1 42758U 17034A   26012.94579319  .00004919  00000+0  25504-3 0  9990
2 42758  43.0159 326.4067 0033443 243.2526 116.4897 15.16689901474073
CZ-2C R/B               
1 43521U 18054D   26012.92557562  .00128641  00000+0  57964-3 0  9990
2 43521  35.1341 328.2187 0010245 109.2876 250.8968 15.82596634419988
SAOCOM 1A               
1 43641U 18076A   26012.92926773 -.00000185  00000+0 -16647-4 0  9999
2 43641  97.8854 201.8980 0001463  84.8006 275.3374 14.82146079393108
H-2A R/B                
1 43682U 18084L   26012.53068975  .00018640  00000+0  48356-3 0  9995
2 43682  98.8771 218.0256 0025841 217.5549 142.3888 15.38737379397132
SAOCOM 1B               
1 46265U 20059A   26012.96046796  .00001059  00000+0  13955-3 0  9997
2 46265  97.8853 201.0280 0001373  84.8236 275.3134 14.82150600290499
CSS (TIANHE)            
1 48274U 21035A   26012.83137836  .00017741  00000+0  21248-3 0  9995
2 48274  41.4654 187.7636 0011510 272.9860  86.9661 15.60461132268888
COSMOS 2550             
1 48865U 21056A   26012.96047869 -.00000175  00000+0  50919-6 0  9998
2 48865  67.1411 209.4996 0008307 270.3432  89.6770 15.33831593254910
CZ-2C R/B               
1 52794U 22058K   26012.37689959  .00023821  00000+0  40254-3 0  9994
2 52794  50.1896 247.0987 0043091 324.0364  35.7707 15.50392824201386
