CCSDS_OMM_VERS = 2.0
CREATION_DATE  = 
ORIGINATOR     = 

OBJECT_NAME    = SL-4 R/B
OBJECT_ID      = 2014-021B
CENTER_NAME    = EARTH
REF_FRAME      = TEME
TIME_SYSTEM    = UTC
MEAN_ELEMENT_THEORY = SGP/SGP4

EPOCH          = 2026-01-12T22:52:48.724608
MEAN_MOTION    = 15.37490982
ECCENTRICITY   = .00994212
INCLINATION    = 51.6069
RA_OF_ASC_NODE = 248.8120
ARG_OF_PERICENTER = 259.4362
MEAN_ANOMALY   = 99.5409

EPHEMERIS_TYPE = 0
CLASSIFICATION_TYPE = U
NORAD_CAT_ID   = 39679
ELEMENT_SET_NO = 999
REV_AT_EPOCH   = 64769
BSTAR          = .1609864E-3
MEAN_MOTION_DOT = .666E-4
MEAN_MOTION_DDOT = 0

CCSDS_OMM_VERS = 2.0
CREATION_DATE  = 
ORIGINATOR     = 

OBJECT_NAME    = ALOS-2
OBJECT_ID      = 2014-029A
CENTER_NAME    = EARTH
REF_FRAME      = TEME
TIME_SYSTEM    = UTC
MEAN_ELEMENT_THEORY = SGP/SGP4

EPOCH          = 2026-01-12T23:44:46.389120
MEAN_MOTION    = 14.79478700
ECCENTRICITY   = .00014863
INCLINATION    = 97.9201
RA_OF_ASC_NODE = 112.3879
ARG_OF_PERICENTER = 96.6808
MEAN_ANOMALY   = 263.4573

EPHEMERIS_TYPE = 0
CLASSIFICATION_TYPE = U
NORAD_CAT_ID   = 39766
ELEMENT_SET_NO = 999
REV_AT_EPOCH   = 62863
BSTAR          = .5077917E-4
MEAN_MOTION_DOT = .328E-5
MEAN_MOTION_DDOT = 0

CCSDS_OMM_VERS = 2.0
CREATION_DATE  = 
ORIGINATOR     = 

OBJECT_NAME    = YAOGAN-29
OBJECT_ID      = 2015-069A
CENTER_NAME    = EARTH
REF_FRAME      = TEME
TIME_SYSTEM    = UTC
MEAN_ELEMENT_THEORY = SGP/SGP4

EPOCH          = 2026-01-12T23:50:56.663232
MEAN_MOTION    = 14.82922365
ECCENTRICITY   = .00021877
INCLINATION    = 98.0204
RA_OF_ASC_NODE = 41.2626
ARG_OF_PERICENTER = 129.3544
MEAN_ANOMALY   = 230.7864

EPHEMERIS_TYPE = 0
CLASSIFICATION_TYPE = U
NORAD_CAT_ID   = 41038
ELEMENT_SET_NO = 999
REV_AT_EPOCH   = 54762
BSTAR          = .12538511E-4
MEAN_MOTION_DOT = .47E-6
MEAN_MOTION_DDOT = 0

CCSDS_OMM_VERS = 2.0
CREATION_DATE  = 
ORIGINATOR     = 

OBJECT_NAME    = ASTRO-H (HITOMI)
OBJECT_ID      = 2016-012A
CENTER_NAME    = EARTH
REF_FRAME      = TEME
TIME_SYSTEM    = UTC
MEAN_ELEMENT_THEORY = SGP/SGP4

EPOCH          = 2026-01-12T23:13:44.846688
MEAN_MOTION    = 15.09585737
ECCENTRICITY   = .00096251
INCLINATION    = 31.0011
RA_OF_ASC_NODE = 356.0170
ARG_OF_PERICENTER = 133.9542
MEAN_ANOMALY   = 226.1891

EPHEMERIS_TYPE = 0
CLASSIFICATION_TYPE = U
NORAD_CAT_ID   = 41337
ELEMENT_SET_NO = 999
REV_AT_EPOCH   = 54380
BSTAR          = .13593847E-3
MEAN_MOTION_DOT = .2334E-4
MEAN_MOTION_DDOT = 0

CCSDS_OMM_VERS = 2.0
CREATION_DATE  = 
ORIGINATOR     = 

OBJECT_NAME    = HXMT (HUIYAN)
OBJECT_ID      = 2017-034A
CENTER_NAME    = EARTH
REF_FRAME      = TEME
TIME_SYSTEM    = UTC
MEAN_ELEMENT_THEORY = SGP/SGP4

EPOCH          = 2026-01-12T22:41:56.531616
MEAN_MOTION    = 15.16689901
ECCENTRICITY   = .00334435
INCLINATION    = 43.0159
RA_OF_ASC_NODE = 326.4067
ARG_OF_PERICENTER = 243.2526
MEAN_ANOMALY   = 116.4897

EPHEMERIS_TYPE = 0
CLASSIFICATION_TYPE = U
NORAD_CAT_ID   = 42758
ELEMENT_SET_NO = 999
REV_AT_EPOCH   = 47407
BSTAR          = .25504123E-3
MEAN_MOTION_DOT = .4919E-4
MEAN_MOTION_DDOT = 0

CCSDS_OMM_VERS = 2.0
CREATION_DATE  = 
ORIGINATOR     = 

OBJECT_NAME    = CZ-2C R/B
OBJECT_ID      = 2018-054D
CENTER_NAME    = EARTH
REF_FRAME      = TEME
TIME_SYSTEM    = UTC
MEAN_ELEMENT_THEORY = SGP/SGP4

EPOCH          = 2026-01-12T22:12:49.733568
MEAN_MOTION    = 15.82596634
ECCENTRICITY   = .00102457
INCLINATION    = 35.1341
RA_OF_ASC_NODE = 328.2187
ARG_OF_PERICENTER = 109.2876
MEAN_ANOMALY   = 250.8968

EPHEMERIS_TYPE = 0
CLASSIFICATION_TYPE = U
NORAD_CAT_ID   = 43521
ELEMENT_SET_NO = 999
REV_AT_EPOCH   = 41998
BSTAR          = .57963651E-3
MEAN_MOTION_DOT = .128641E-2
MEAN_MOTION_DDOT = 0

CCSDS_OMM_VERS = 2.0
CREATION_DATE  = 
ORIGINATOR     = 

OBJECT_NAME    = SAOCOM 1A
OBJECT_ID      = 2018-076A
CENTER_NAME    = EARTH
REF_FRAME      = TEME
TIME_SYSTEM    = UTC
MEAN_ELEMENT_THEORY = SGP/SGP4

EPOCH          = 2026-01-12T22:18:08.731872
MEAN_MOTION    = 14.82146079
ECCENTRICITY   = .0001463
INCLINATION    = 97.8854
RA_OF_ASC_NODE = 201.8980
ARG_OF_PERICENTER = 84.8006
MEAN_ANOMALY   = 275.3374

EPHEMERIS_TYPE = 0
CLASSIFICATION_TYPE = U
NORAD_CAT_ID   = 43641
ELEMENT_SET_NO = 999
REV_AT_EPOCH   = 39310
BSTAR          = -.16647384E-4
MEAN_MOTION_DOT = -.185E-5
MEAN_MOTION_DDOT = 0

CCSDS_OMM_VERS = 2.0
CREATION_DATE  = 
ORIGINATOR     = 

OBJECT_NAME    = H-2A R/B
OBJECT_ID      = 2018-084L
CENTER_NAME    = EARTH
REF_FRAME      = TEME
TIME_SYSTEM    = UTC
MEAN_ELEMENT_THEORY = SGP/SGP4

EPOCH          = 2026-01-12T12:44:11.594400
MEAN_MOTION    = 15.38737379
ECCENTRICITY   = .00258415
INCLINATION    = 98.8771
RA_OF_ASC_NODE = 218.0256
ARG_OF_PERICENTER = 217.5549
MEAN_ANOMALY   = 142.3888

EPHEMERIS_TYPE = 0
CLASSIFICATION_TYPE = U
NORAD_CAT_ID   = 43682
ELEMENT_SET_NO = 999
REV_AT_EPOCH   = 39713
BSTAR          = .48355771E-3
MEAN_MOTION_DOT = .1864E-3
MEAN_MOTION_DDOT = 0

CCSDS_OMM_VERS = 2.0
CREATION_DATE  = 
ORIGINATOR     = 

OBJECT_NAME    = SAOCOM 1B
OBJECT_ID      = 2020-059A
CENTER_NAME    = EARTH
REF_FRAME      = TEME
TIME_SYSTEM    = UTC
MEAN_ELEMENT_THEORY = SGP/SGP4

EPOCH          = 2026-01-12T23:03:04.431744
MEAN_MOTION    = 14.82150600
ECCENTRICITY   = .00013733
INCLINATION    = 97.8853
RA_OF_ASC_NODE = 201.0280
ARG_OF_PERICENTER = 84.8236
MEAN_ANOMALY   = 275.3134

EPHEMERIS_TYPE = 0
CLASSIFICATION_TYPE = U
NORAD_CAT_ID   = 46265
ELEMENT_SET_NO = 999
REV_AT_EPOCH   = 29049
BSTAR          = .13954739E-3
MEAN_MOTION_DOT = .1059E-4
MEAN_MOTION_DDOT = 0

CCSDS_OMM_VERS = 2.0
CREATION_DATE  = 
ORIGINATOR     = 

OBJECT_NAME    = CSS (TIANHE)
OBJECT_ID      = 2021-035A
CENTER_NAME    = EARTH
REF_FRAME      = TEME
TIME_SYSTEM    = UTC
MEAN_ELEMENT_THEORY = SGP/SGP4

EPOCH          = 2026-01-12T19:57:11.090304
MEAN_MOTION    = 15.60461132
ECCENTRICITY   = .00115103
INCLINATION    = 41.4654
RA_OF_ASC_NODE = 187.7636
ARG_OF_PERICENTER = 272.9860
MEAN_ANOMALY   = 86.9661

EPHEMERIS_TYPE = 0
CLASSIFICATION_TYPE = U
NORAD_CAT_ID   = 48274
ELEMENT_SET_NO = 999
REV_AT_EPOCH   = 26888
BSTAR          = .21248408E-3
MEAN_MOTION_DOT = .17741E-3
MEAN_MOTION_DDOT = 0

CCSDS_OMM_VERS = 2.0
CREATION_DATE  = 
ORIGINATOR     = 

OBJECT_NAME    = COSMOS 2550
OBJECT_ID      = 2021-056A
CENTER_NAME    = EARTH
REF_FRAME      = TEME
TIME_SYSTEM    = UTC
MEAN_ELEMENT_THEORY = SGP/SGP4

EPOCH          = 2026-01-12T23:03:05.358816
MEAN_MOTION    = 15.33831593
ECCENTRICITY   = .00083072
INCLINATION    = 67.1411
RA_OF_ASC_NODE = 209.4996
ARG_OF_PERICENTER = 270.3432
MEAN_ANOMALY   = 89.6770

EPHEMERIS_TYPE = 0
CLASSIFICATION_TYPE = U
NORAD_CAT_ID   = 48865
ELEMENT_SET_NO = 999
REV_AT_EPOCH   = 25491
BSTAR          = .509189E-6
MEAN_MOTION_DOT = -.175E-5
MEAN_MOTION_DDOT = 0

CCSDS_OMM_VERS = 2.0
CREATION_DATE  = 
ORIGINATOR     = 

OBJECT_NAME    = CZ-2C R/B
OBJECT_ID      = 2022-058K
CENTER_NAME    = EARTH
REF_FRAME      = TEME
TIME_SYSTEM    = UTC
MEAN_ELEMENT_THEORY = SGP/SGP4

EPOCH          = 2026-01-12T09:02:44.124576
MEAN_MOTION    = 15.50392824
ECCENTRICITY   = .00430916
INCLINATION    = 50.1896
RA_OF_ASC_NODE = 247.0987
ARG_OF_PERICENTER = 324.0364
MEAN_ANOMALY   = 35.7707

EPHEMERIS_TYPE = 0
CLASSIFICATION_TYPE = U
NORAD_CAT_ID   = 52794
ELEMENT_SET_NO = 999
REV_AT_EPOCH   = 20138
BSTAR          = .40254056E-3
MEAN_MOTION_DOT = .23821E-3
MEAN_MOTION_DDOT = 0

